[{"OBJECT_NAME":"OBJECT F","OBJECT_ID":"2024-092F","EPOCH":"2026-03-09T21:54:46.147104","MEAN_MOTION":15.3361444,"ECCENTRICITY":0.00086458,"INCLINATION":97.6418,"RA_OF_ASC_NODE":198.4543,"ARG_OF_PERICENTER":142.6506,"MEAN_ANOMALY":217.5339,"EPHEMERIS_TYPE":0,"CLASSIFICATION_TYPE":"U","NORAD_CAT_ID":59778,"ELEMENT_SET_NO":999,"REV_AT_EPOCH":10053,"BSTAR":0.0007914277,"MEAN_MOTION_DOT":0.00025723,"MEAN_MOTION_DDOT":0},{"OBJECT_NAME":"STARLINK-34648","OBJECT_ID":"2025-167P","EPOCH":"2026-03-09T06:37:36.361056","MEAN_MOTION":15.30198253,"ECCENTRICITY":0.00012785,"INCLINATION":53.1615,"RA_OF_ASC_NODE":28.7842,"ARG_OF_PERICENTER":62.5742,"MEAN_ANOMALY":297.5389,"EPHEMERIS_TYPE":0,"CLASSIFICATION_TYPE":"U","NORAD_CAT_ID":65091,"ELEMENT_SET_NO":999,"REV_AT_EPOCH":3341,"BSTAR":0.0010005854,"MEAN_MOTION_DOT":0.00029391,"MEAN_MOTION_DDOT":0}]
